{"type": "FeatureCollection", "name": "wijken gemeente Groningen (CBS 2024, PDOK)", "features": [{"type": "Feature", "properties": {"code": "WK001400", "naam": "Centrum"}, "geometry": {"type": "Polygon", "coordinates": [[[6.56023, 53.22768], [6.56121, 53.22613], [6.56409, 53.22648], [6.5664, 53.22533], [6.57087, 53.2272], [6.57162, 53.22661], [6.57711, 53.22389], [6.57877, 53.22113], [6.57851, 53.21848], [6.58015, 53.21705], [6.5766, 53.21574], [6.57239, 53.21312], [6.57015, 53.21263], [6.57132, 53.21074], [6.55933, 53.21056], [6.55867, 53.2131], [6.55586, 53.21402], [6.55681, 53.21583], [6.55591, 53.21918], [6.55334, 53.21937], [6.55273, 53.22245], [6.55469, 53.22621], [6.56023, 53.22768]]]}}, {"type": "Feature", "properties": {"code": "WK001401", "naam": "Oud-Zuid"}, "geometry": {"type": "Polygon", "coordinates": [[[6.58864, 53.21145], [6.58365, 53.20959], [6.57981, 53.20759], [6.57416, 53.20535], [6.55937, 53.20215], [6.54043, 53.19661], [6.53669, 53.19589], [6.53395, 53.1957], [6.53191, 53.20466], [6.53329, 53.20504], [6.53132, 53.2098], [6.54702, 53.21019], [6.54201, 53.21291], [6.54982, 53.21456], [6.55586, 53.21402], [6.55867, 53.2131], [6.55933, 53.21056], [6.57132, 53.21074], [6.57015, 53.21263], [6.57239, 53.21312], [6.5766, 53.21574], [6.58015, 53.21705], [6.58179, 53.21573], [6.58864, 53.21145]]]}}, {"type": "Feature", "properties": {"code": "WK001402", "naam": "Oud-West"}, "geometry": {"type": "Polygon", "coordinates": [[[6.55681, 53.21583], [6.55586, 53.21402], [6.54982, 53.21456], [6.54265, 53.21306], [6.54007, 53.21645], [6.54017, 53.21893], [6.54109, 53.22008], [6.54229, 53.22096], [6.5562, 53.22984], [6.56003, 53.22801], [6.56023, 53.22768], [6.55469, 53.22621], [6.55273, 53.22245], [6.55334, 53.21937], [6.55591, 53.21918], [6.55681, 53.21583]]]}}, {"type": "Feature", "properties": {"code": "WK001403", "naam": "Oud-Noord"}, "geometry": {"type": "Polygon", "coordinates": [[[6.58451, 53.23348], [6.5664, 53.22533], [6.56409, 53.22648], [6.56121, 53.22613], [6.56003, 53.22801], [6.5562, 53.22984], [6.55804, 53.23183], [6.55933, 53.23504], [6.55884, 53.23833], [6.55664, 53.24267], [6.57831, 53.23609], [6.58451, 53.23348]]]}}, {"type": "Feature", "properties": {"code": "WK001404", "naam": "Oosterparkwijk"}, "geometry": {"type": "Polygon", "coordinates": [[[6.59826, 53.22222], [6.58015, 53.21705], [6.57851, 53.21848], [6.57877, 53.22113], [6.57711, 53.22389], [6.57162, 53.22661], [6.57087, 53.2272], [6.58451, 53.23348], [6.59826, 53.22222]]]}}, {"type": "Feature", "properties": {"code": "WK001405", "naam": "Zuidoost"}, "geometry": {"type": "Polygon", "coordinates": [[[6.64265, 53.2003], [6.65047, 53.19941], [6.66216, 53.19982], [6.65018, 53.19341], [6.64261, 53.19188], [6.63981, 53.1903], [6.64682, 53.18794], [6.64399, 53.18737], [6.63947, 53.18598], [6.63686, 53.18626], [6.63202, 53.18837], [6.62187, 53.19144], [6.60483, 53.19654], [6.60327, 53.19636], [6.57981, 53.20759], [6.58365, 53.20959], [6.58864, 53.21145], [6.58179, 53.21573], [6.58015, 53.21705], [6.61215, 53.22609], [6.61835, 53.21719], [6.62582, 53.20978], [6.63041, 53.20569], [6.63494, 53.2027], [6.64265, 53.2003]]]}}, {"type": "Feature", "properties": {"code": "WK001406", "naam": "Helpman e.o."}, "geometry": {"type": "Polygon", "coordinates": [[[6.58038, 53.18359], [6.57579, 53.18293], [6.56823, 53.18696], [6.56419, 53.1928], [6.56301, 53.19619], [6.56458, 53.19976], [6.56469, 53.20323], [6.57416, 53.20535], [6.57981, 53.20759], [6.60327, 53.19636], [6.59759, 53.19495], [6.59768, 53.19043], [6.59255, 53.18918], [6.58656, 53.1872], [6.58116, 53.18497], [6.57972, 53.18469], [6.58038, 53.18359]]]}}, {"type": "Feature", "properties": {"code": "WK001407", "naam": "Zuidwest"}, "geometry": {"type": "Polygon", "coordinates": [[[6.56823, 53.18696], [6.57579, 53.18293], [6.57126, 53.1828], [6.56768, 53.18389], [6.56119, 53.18298], [6.55754, 53.18308], [6.55694, 53.18383], [6.54885, 53.18167], [6.54838, 53.18089], [6.54819, 53.1811], [6.54271, 53.17867], [6.54174, 53.17861], [6.5409, 53.17988], [6.53954, 53.18131], [6.53745, 53.18265], [6.53422, 53.18406], [6.52953, 53.1952], [6.53049, 53.19556], [6.53669, 53.19589], [6.54043, 53.19661], [6.55937, 53.20215], [6.56469, 53.20323], [6.56458, 53.19976], [6.56301, 53.19619], [6.56419, 53.1928], [6.56823, 53.18696]]]}}, {"type": "Feature", "properties": {"code": "WK001408", "naam": "Hoogkerk e.o."}, "geometry": {"type": "Polygon", "coordinates": [[[6.51361, 53.21108], [6.51931, 53.20246], [6.53128, 53.20558], [6.53074, 53.20764], [6.53202, 53.20782], [6.53329, 53.20504], [6.53191, 53.20466], [6.53395, 53.1957], [6.53049, 53.19556], [6.52671, 53.19585], [6.51572, 53.19831], [6.51339, 53.19694], [6.50977, 53.19878], [6.50982, 53.19901], [6.50899, 53.19912], [6.50685, 53.20015], [6.49643, 53.19814], [6.49439, 53.1982], [6.49351, 53.1985], [6.49294, 53.19932], [6.49273, 53.20074], [6.48572, 53.20382], [6.48151, 53.20355], [6.46346, 53.20006], [6.46275, 53.20198], [6.46638, 53.20419], [6.467, 53.20617], [6.46447, 53.20761], [6.48048, 53.24551], [6.49401, 53.24267], [6.51996, 53.23582], [6.51767, 53.23367], [6.50872, 53.23252], [6.50735, 53.23185], [6.50708, 53.2235], [6.50807, 53.22167], [6.5039, 53.22137], [6.50323, 53.21854], [6.51924, 53.21497], [6.51295, 53.21481], [6.51361, 53.21108]]]}}, {"type": "Feature", "properties": {"code": "WK001409", "naam": "Nieuw-West"}, "geometry": {"type": "Polygon", "coordinates": [[[6.52094, 53.24758], [6.52999, 53.23462], [6.53543, 53.22731], [6.53829, 53.22387], [6.54229, 53.22096], [6.54109, 53.22008], [6.54017, 53.21893], [6.54007, 53.21645], [6.54265, 53.21306], [6.54201, 53.21291], [6.54702, 53.21019], [6.53132, 53.2098], [6.53202, 53.20782], [6.53074, 53.20764], [6.53128, 53.20558], [6.51931, 53.20246], [6.51361, 53.21108], [6.51295, 53.21481], [6.51924, 53.21497], [6.50323, 53.21854], [6.5039, 53.22137], [6.50807, 53.22167], [6.50708, 53.2235], [6.50735, 53.23185], [6.50872, 53.23252], [6.51767, 53.23367], [6.51996, 53.23582], [6.49401, 53.24267], [6.48048, 53.24551], [6.48092, 53.25019], [6.4886, 53.24902], [6.48873, 53.24723], [6.49043, 53.24732], [6.49244, 53.24668], [6.49199, 53.24556], [6.49585, 53.24582], [6.49704, 53.24677], [6.50215, 53.24771], [6.51144, 53.25411], [6.51862, 53.25004], [6.52094, 53.24758]]]}}, {"type": "Feature", "properties": {"code": "WK001410", "naam": "Noordwest"}, "geometry": {"type": "Polygon", "coordinates": [[[6.5562, 53.22984], [6.54229, 53.22096], [6.53829, 53.22387], [6.53543, 53.22731], [6.52999, 53.23462], [6.52094, 53.24758], [6.51862, 53.25004], [6.508, 53.25622], [6.50825, 53.25727], [6.55664, 53.24267], [6.55884, 53.23833], [6.55933, 53.23504], [6.55804, 53.23183], [6.5562, 53.22984]]]}}, {"type": "Feature", "properties": {"code": "WK001411", "naam": "Noordoost"}, "geometry": {"type": "Polygon", "coordinates": [[[6.54955, 53.26441], [6.55139, 53.26238], [6.5524, 53.26218], [6.55395, 53.26213], [6.5666, 53.26361], [6.56723, 53.26149], [6.58575, 53.26154], [6.58578, 53.26249], [6.58854, 53.26255], [6.58736, 53.26026], [6.58634, 53.25588], [6.60635, 53.25374], [6.60673, 53.24914], [6.60913, 53.24642], [6.6054, 53.24487], [6.6038, 53.24578], [6.59809, 53.2438], [6.5975, 53.24448], [6.58759, 53.24031], [6.58955, 53.23901], [6.5865, 53.23682], [6.58167, 53.23713], [6.57857, 53.23646], [6.57831, 53.23609], [6.50825, 53.25727], [6.50824, 53.25757], [6.51083, 53.25679], [6.51809, 53.25833], [6.52317, 53.25724], [6.52968, 53.25824], [6.53658, 53.26003], [6.53931, 53.26036], [6.53793, 53.2641], [6.54097, 53.26362], [6.55034, 53.26491], [6.54955, 53.26441]]]}}, {"type": "Feature", "properties": {"code": "WK001412", "naam": "Noorddijk e.o."}, "geometry": {"type": "Polygon", "coordinates": [[[6.61835, 53.25149], [6.6193, 53.24945], [6.63504, 53.25129], [6.64359, 53.23481], [6.59826, 53.22222], [6.58451, 53.23348], [6.57831, 53.23609], [6.57857, 53.23646], [6.58167, 53.23713], [6.5865, 53.23682], [6.58955, 53.23901], [6.58759, 53.24031], [6.5975, 53.24448], [6.59809, 53.2438], [6.6038, 53.24578], [6.6054, 53.24487], [6.60913, 53.24642], [6.60673, 53.24914], [6.60641, 53.25142], [6.61835, 53.25149]]]}}, {"type": "Feature", "properties": {"code": "WK001413", "naam": "Meerdorpen"}, "geometry": {"type": "Polygon", "coordinates": [[[6.66216, 53.19982], [6.65047, 53.19941], [6.64265, 53.2003], [6.63494, 53.2027], [6.63041, 53.20569], [6.62582, 53.20978], [6.61835, 53.21719], [6.61215, 53.22609], [6.64359, 53.23481], [6.64366, 53.23347], [6.64005, 53.23247], [6.64109, 53.23111], [6.64331, 53.23051], [6.64071, 53.22885], [6.6435, 53.22673], [6.64792, 53.21864], [6.6497, 53.21646], [6.66242, 53.20513], [6.66687, 53.20202], [6.66216, 53.19982]]]}}, {"type": "Feature", "properties": {"code": "WK001414", "naam": "Meerstad e.o."}, "geometry": {"type": "Polygon", "coordinates": [[[6.69331, 53.21425], [6.69336, 53.213], [6.69077, 53.21316], [6.69049, 53.21247], [6.68823, 53.21264], [6.68819, 53.21218], [6.68285, 53.2113], [6.68266, 53.21206], [6.68047, 53.21169], [6.68008, 53.21003], [6.67964, 53.2094], [6.67976, 53.20832], [6.68248, 53.20849], [6.68401, 53.20215], [6.68302, 53.20099], [6.6736, 53.20065], [6.66687, 53.20202], [6.66242, 53.20513], [6.6497, 53.21646], [6.64792, 53.21864], [6.6435, 53.22673], [6.64071, 53.22885], [6.64331, 53.23051], [6.64109, 53.23111], [6.64005, 53.23247], [6.64366, 53.23347], [6.64362, 53.23506], [6.65027, 53.23726], [6.66781, 53.24522], [6.69833, 53.25615], [6.70373, 53.25378], [6.70354, 53.25194], [6.71451, 53.24561], [6.71272, 53.24462], [6.71769, 53.24187], [6.71201, 53.23846], [6.70883, 53.23544], [6.70887, 53.23518], [6.70709, 53.2343], [6.70901, 53.23312], [6.70881, 53.23186], [6.7073, 53.23107], [6.70567, 53.22826], [6.70763, 53.22711], [6.7072, 53.22686], [6.7082, 53.2262], [6.70576, 53.22501], [6.70637, 53.22453], [6.70512, 53.22371], [6.70117, 53.21941], [6.69855, 53.21781], [6.69879, 53.21731], [6.69752, 53.21697], [6.69825, 53.21467], [6.69331, 53.21425]]]}}, {"type": "Feature", "properties": {"code": "WK001415", "naam": "Ten Boer e.o."}, "geometry": {"type": "Polygon", "coordinates": [[[6.65405, 53.30865], [6.65577, 53.30812], [6.65594, 53.30833], [6.65705, 53.30775], [6.66077, 53.30669], [6.67717, 53.30374], [6.68974, 53.29754], [6.70278, 53.28823], [6.71095, 53.28357], [6.72248, 53.2798], [6.71065, 53.26866], [6.71766, 53.26317], [6.66781, 53.24522], [6.65027, 53.23726], [6.64362, 53.23506], [6.63504, 53.25129], [6.63605, 53.25144], [6.63568, 53.2541], [6.63345, 53.25976], [6.62587, 53.26614], [6.64277, 53.29093], [6.64929, 53.30228], [6.65405, 53.30865]]]}}, {"type": "Feature", "properties": {"code": "WK001416", "naam": "Ten Post e.o."}, "geometry": {"type": "Polygon", "coordinates": [[[6.74047, 53.31218], [6.74268, 53.31102], [6.7429, 53.31136], [6.74368, 53.3111], [6.74422, 53.31192], [6.74705, 53.31149], [6.74731, 53.31193], [6.74795, 53.31178], [6.74935, 53.30984], [6.74479, 53.30775], [6.74805, 53.30297], [6.75308, 53.29885], [6.75554, 53.29963], [6.76068, 53.29524], [6.76462, 53.29814], [6.77223, 53.29192], [6.76979, 53.29068], [6.77231, 53.28779], [6.76914, 53.28663], [6.77253, 53.28309], [6.75114, 53.2754], [6.73229, 53.26921], [6.71766, 53.26317], [6.71065, 53.26866], [6.72248, 53.2798], [6.71095, 53.28357], [6.70278, 53.28823], [6.68974, 53.29754], [6.70532, 53.30753], [6.70662, 53.30704], [6.709, 53.31012], [6.71272, 53.30933], [6.72435, 53.30554], [6.72945, 53.30535], [6.7329, 53.31141], [6.73761, 53.3128], [6.74047, 53.31218]]]}}, {"type": "Feature", "properties": {"code": "WK001417", "naam": "Haren-West e.o."}, "geometry": {"type": "Polygon", "coordinates": [[[6.60627, 53.19358], [6.62215, 53.16882], [6.63211, 53.15267], [6.63273, 53.14702], [6.63218, 53.14702], [6.63135, 53.14937], [6.62778, 53.15013], [6.6247, 53.14927], [6.61665, 53.14933], [6.61604, 53.15034], [6.61343, 53.15067], [6.61178, 53.15044], [6.61182, 53.14711], [6.61603, 53.14128], [6.60985, 53.14019], [6.60862, 53.13965], [6.60918, 53.1384], [6.60652, 53.13932], [6.60046, 53.14431], [6.58779, 53.14589], [6.58739, 53.14868], [6.58464, 53.15431], [6.58709, 53.15623], [6.58346, 53.15853], [6.5811, 53.16261], [6.5815, 53.16353], [6.56369, 53.15764], [6.55932, 53.16934], [6.55581, 53.1733], [6.54838, 53.18089], [6.54885, 53.18167], [6.55694, 53.18383], [6.55754, 53.18308], [6.56119, 53.18298], [6.56768, 53.18389], [6.57126, 53.1828], [6.57488, 53.1828], [6.58038, 53.18359], [6.57972, 53.18469], [6.58116, 53.18497], [6.58656, 53.1872], [6.59255, 53.18918], [6.59768, 53.19043], [6.59759, 53.19495], [6.60327, 53.19636], [6.60627, 53.19358]]]}}, {"type": "Feature", "properties": {"code": "WK001418", "naam": "Haren-Oost e.o."}, "geometry": {"type": "Polygon", "coordinates": [[[6.63099, 53.15749], [6.62953, 53.15659], [6.62215, 53.16882], [6.60627, 53.19358], [6.60327, 53.19636], [6.60483, 53.19654], [6.63202, 53.18837], [6.63686, 53.18626], [6.63947, 53.18598], [6.64725, 53.18378], [6.64422, 53.18178], [6.63586, 53.17136], [6.6313, 53.16748], [6.63262, 53.16709], [6.6301, 53.16388], [6.63099, 53.15749]]]}}, {"type": "Feature", "properties": {"code": "WK001419", "naam": "Glimmen-Onnen-Noordlaren"}, "geometry": {"type": "Polygon", "coordinates": [[[6.68627, 53.14785], [6.68905, 53.14467], [6.69537, 53.12118], [6.67493, 53.11753], [6.63484, 53.1062], [6.6371, 53.10865], [6.63578, 53.1134], [6.63386, 53.1142], [6.62983, 53.11468], [6.62807, 53.11588], [6.62794, 53.11718], [6.63058, 53.11939], [6.62865, 53.11949], [6.62734, 53.12283], [6.62283, 53.12537], [6.62176, 53.12635], [6.62132, 53.12831], [6.61898, 53.12988], [6.61898, 53.13158], [6.61657, 53.13297], [6.61364, 53.1327], [6.6144, 53.13556], [6.61062, 53.13794], [6.60918, 53.1384], [6.60862, 53.13965], [6.60985, 53.14019], [6.61603, 53.14128], [6.61182, 53.14711], [6.61178, 53.15044], [6.61343, 53.15067], [6.61604, 53.15034], [6.61665, 53.14933], [6.6247, 53.14927], [6.62778, 53.15013], [6.63135, 53.14937], [6.63218, 53.14702], [6.63273, 53.14702], [6.63211, 53.15267], [6.62953, 53.15659], [6.63099, 53.15749], [6.6301, 53.16388], [6.63262, 53.16709], [6.6313, 53.16748], [6.63586, 53.17136], [6.64422, 53.18178], [6.64725, 53.18378], [6.65724, 53.18077], [6.66027, 53.17659], [6.66163, 53.17198], [6.66326, 53.17058], [6.66537, 53.16944], [6.66968, 53.16903], [6.67168, 53.16691], [6.67818, 53.16481], [6.68871, 53.15461], [6.69027, 53.15116], [6.69022, 53.15039], [6.68699, 53.14897], [6.68627, 53.14785]]]}}]}